     2.100          NAVIGATION                              RINEX VERSION / TYPE
fic2rin                                 09/06/2008 03:25:39 PGM / RUN BY / DATE
                                                            END OF HEADER
 2 08  9  5 16  0  0.0  .189635436982D-03 -.284217094304D-11  .000000000000D+00
     .980000000000D+02  .735312500000D+02  .477591322167D-08 -.693733268707D+00
     .390037894249D-05  .874164351262D-02  .833719968796D-05  .515377213860D+04
     .489600000000D+06 -.633299350739D-07 -.192925089983D+01 -.244006514549D-06
     .942636704968D+00  .214812500000D+03  .263669994717D+01 -.813105297671D-08
    -.117862052285D-10  .100000000000D+01  .149500000000D+04  .000000000000D+00
     .340000000000D+01  .000000000000D+00 -.172294676304D-07  .980000000000D+02
     .482406000000D+06  .400000000000D+01
 3 08  9  5 16  0  0.0  .279395375401D-03  .511590769747D-11  .000000000000D+00
     .136000000000D+03 -.200937500000D+02  .548558563952D-08 -.102632735609D+01
    -.104121863842D-05  .111148591386D-01  .766105949879D-05  .515369249153D+04
     .489600000000D+06  .217929482460D-06 -.307383852585D+01  .180676579475D-06
     .926409183770D+00  .212375000000D+03  .844031712280D+00 -.841963642594D-08
    -.383944564261D-09  .100000000000D+01  .149500000000D+04  .000000000000D+00
     .240000000000D+01  .000000000000D+00 -.419095158577D-08  .136000000000D+03
     .482406000000D+06  .400000000000D+01
 4 08  9  5 16  0  0.0 -.162702985108D-03 -.108002495836D-10  .000000000000D+00
     .930000000000D+02  .721562500000D+02  .476769859378D-08  .210828186640D+01
     .370293855667D-05  .826287548989D-02  .867620110512D-05  .515358470535D+04
     .489600000000D+06 -.117346644402D-06 -.191052235048D+01  .745058059692D-08
     .941906218769D+00  .207656250000D+03  .392953942509D+00 -.810890919719D-08
    -.117862052285D-09  .100000000000D+01  .149500000000D+04  .000000000000D+00
     .340000000000D+01  .000000000000D+00 -.605359673500D-08  .930000000000D+02
     .482406000000D+06  .400000000000D+01
 5 08  9  5 16  0  0.0  .129534862936D-03 -.222712515097D-09  .000000000000D+00
     .180000000000D+03 -.185625000000D+02  .522200323168D-08  .170413645868D+01
    -.114925205708D-05  .927025265992D-02  .613927841187D-05  .515369378090D+04
     .489600000000D+06 -.128522515297D-06  .217729201464D+01 -.195577740669D-06
     .943387600337D+00  .251718750000D+03  .126922290233D+01 -.829677416538D-08
     .223937899341D-09  .100000000000D+01  .149500000000D+04  .000000000000D+00
     .485000000000D+01  .630000000000D+02 -.419095158577D-08  .180000000000D+03
     .482406000000D+06  .400000000000D+01
 6 08  9  5 16  0  0.0  .167288817465D-03 -.682121026330D-12  .000000000000D+00
     .470000000000D+02 -.236562500000D+02  .525486174323D-08  .157568401217D+01
    -.154785811901D-05  .575844466221D-02  .816211104393D-05  .515371491814D+04
     .489600000000D+06  .242143869400D-07 -.300843139708D+01 -.163912773132D-06
     .933957002807D+00  .207000000000D+03 -.158436840591D+01 -.824641492485D-08
    -.408231290186D-09  .100000000000D+01  .149500000000D+04  .000000000000D+00
     .240000000000D+01  .000000000000D+00 -.465661287308D-08  .470000000000D+02
     .482406000000D+06  .400000000000D+01
 7 08  9  5 16  0  0.0  .149607658386D-04  .295585778076D-11  .000000000000D+00
     .900000000000D+02 -.199375000000D+02  .441125517506D-08 -.233114155580D+01
    -.912696123123D-06  .216784758959D-02  .836327672005D-05  .515370128822D+04
     .489600000000D+06 -.149011611938D-07  .122255305069D+01 -.558793544769D-08
     .963568043220D+00  .224500000000D+03  .270785649906D+01 -.790604360416D-08
     .378587198248D-09  .100000000000D+01  .149500000000D+04  .000000000000D+00
     .340000000000D+01  .000000000000D+00 -.107102096081D-07  .900000000000D+02
     .482406000000D+06  .400000000000D+01
 9 08  9  5 16  0  0.0  .134711153805D-04  .181898940355D-11  .000000000000D+00
     .450000000000D+02 -.341562500000D+02  .407802700905D-08  .280081350005D+01
    -.189803540707D-05  .201525583398D-01  .887364149094D-05  .515366719055D+04
     .489600000000D+06  .203028321266D-06  .118660667969D+01 -.195577740669D-06
     .972596548939D+00  .210218750000D+03  .143888424580D+01 -.747495421899D-08
     .302155443130D-09  .100000000000D+01  .149500000000D+04  .000000000000D+00
     .340000000000D+01  .000000000000D+00 -.558793544769D-08  .450000000000D+02
     .482406000000D+06  .400000000000D+01
10 08  9  5 16  0  0.0 -.453693792224D-05 -.341060513165D-12  .000000000000D+00
     .800000000000D+01  .338437500000D+02  .452233123039D-08  .223151019296D+00
     .190176069736D-05  .800369598437D-02  .340864062309D-05  .515369813919D+04
     .489600000000D+06  .106170773506D-06 -.846228136021D+00  .158324837685D-06
     .962015653071D+00  .313218750000D+03  .556830176429D+00 -.833820446254D-08
     .678599694973D-11  .100000000000D+01  .149500000000D+04  .000000000000D+00
     .240000000000D+01  .000000000000D+00 -.232830643654D-08  .800000000000D+01
     .482406000000D+06  .400000000000D+01
11 08  9  5 16  0  0.0  .203982926905D-04 -.682121026330D-12  .000000000000D+00
     .730000000000D+02  .504062500000D+02  .586703009964D-08 -.266872207700D+01
     .262260437012D-05  .842605833896D-02  .916607677937D-05  .515364944458D+04
     .489600000000D+06 -.111758708954D-07 -.211610196083D+01 -.465661287308D-07
     .890638936401D+00  .164156250000D+03  .608027484500D+00 -.849071081504D-08
    -.817891211309D-10  .100000000000D+01  .149500000000D+04  .000000000000D+00
     .240000000000D+01  .000000000000D+00 -.121071934700D-07  .730000000000D+02
     .482406000000D+06  .400000000000D+01
12 08  9  5 16  0  0.0 -.352112110704D-03  .147792889038D-11  .000000000000D+00
     .103000000000D+03 -.193437500000D+02  .472841124302D-08 -.223245796784D+01
    -.994652509689D-06  .316065049265D-02  .620260834694D-05  .515352759933D+04
     .489600000000D+06 -.689178705215D-07  .227301475004D+01  .894069671631D-07
     .964600306012D+00  .260718750000D+03 -.862016113243D+00 -.801497671309D-08
     .121433629627D-09  .100000000000D+01  .149500000000D+04  .000000000000D+00
     .340000000000D+01  .000000000000D+00 -.116415321827D-07  .103000000000D+03
     .482406000000D+06  .400000000000D+01
14 08  9  5 16  0  0.0 -.223464332521D-03  .466116034659D-11  .000000000000D+00
     .400000000000D+02 -.590625000000D+02  .387444710056D-08 -.347806719409D+00
    -.299140810966D-05  .412455270998D-02  .605732202530D-05  .515373183632D+04
     .489600000000D+06 -.186264514923D-08  .207474371603D+00  .875443220139D-07
     .989428034403D+00  .280687500000D+03 -.218730590980D+01 -.790175771135D-08
    -.585738684082D-10  .100000000000D+01  .149500000000D+04  .000000000000D+00
     .240000000000D+01  .000000000000D+00 -.931322574615D-08  .400000000000D+02
     .482406000000D+06  .400000000000D+01
15 08  9  5 16  0  0.0 -.172196421772D-03 -.648014975013D-11  .000000000000D+00
     .170000000000D+02 -.579062500000D+02  .451375944477D-08  .527684155249D+00
    -.304356217384D-05  .837587984279D-03  .593811273575D-05  .515369881821D+04
     .489600000000D+06 -.372529029846D-07  .163298360798D+00 -.111758708954D-07
     .957714913836D+00  .260562500000D+03 -.120062514338D+01 -.819641284207D-08
    -.882179603464D-10  .100000000000D+01  .149500000000D+04  .000000000000D+00
     .240000000000D+01  .000000000000D+00 -.977888703346D-08  .170000000000D+02
     .482406000000D+06  .400000000000D+01
16 08  9  5 16  0  0.0  .108545646071D-03 -.193267624127D-11  .000000000000D+00
     .101000000000D+03 -.227187500000D+02  .475269796895D-08  .145213888046D+01
    -.102445483208D-05  .472326611634D-02  .595487654209D-05  .515365759087D+04
     .489600000000D+06  .819563865662D-07  .228955388596D+01 -.242143869400D-07
     .966236950002D+00  .263281250000D+03 -.407025341896D+00 -.804854954011D-08
     .325013538118D-10  .100000000000D+01  .149500000000D+04  .000000000000D+00
     .240000000000D+01  .000000000000D+00 -.977888703346D-08  .101000000000D+03
     .482406000000D+06  .400000000000D+01
17 08  9  5 16  0  0.0  .388915650547D-04  .000000000000D+00  .000000000000D+00
     .340000000000D+02 -.168437500000D+02  .467555189836D-08  .265305391423D+00
    -.931322574615D-06  .379773473833D-02  .860355794430D-05  .515358788490D+04
     .489600000000D+06  .111758708954D-07 -.295248839008D+01  .298023223877D-07
     .960032911921D+00  .212718750000D+03 -.278303415046D+01 -.804426364730D-08
    -.417874549009D-09  .100000000000D+01  .149500000000D+04  .000000000000D+00
     .240000000000D+01  .000000000000D+00 -.102445483208D-07  .340000000000D+02
     .482406000000D+06  .400000000000D+01
18 08  9  5 16  0  0.0 -.137167051435D-03  .409272615798D-11  .000000000000D+00
     .890000000000D+02  .487500000000D+02  .492449083910D-08  .161523471927D+01
     .248104333878D-05  .983541156165D-02  .342912971973D-05  .515371590614D+04
     .489600000000D+06 -.186264514923D-06 -.836802402693D+00  .298023223877D-07
     .946099193606D+00  .305250000000D+03 -.246928692300D+01 -.852821237713D-08
    -.642883921553D-10  .100000000000D+01  .149500000000D+04  .000000000000D+00
     .240000000000D+01  .000000000000D+00 -.107102096081D-07  .890000000000D+02
     .482406000000D+06  .400000000000D+01
19 08  9  5 16  0  0.0  .352622009814D-04  .227373675443D-12  .000000000000D+00
     .730000000000D+02 -.151250000000D+02  .464983654150D-08 -.237205415186D+00
    -.821426510811D-06  .489702471532D-02  .881962478161D-05  .515372429085D+04
     .489600000000D+06  .391155481339D-07 -.289570967064D+01 -.100582838058D-06
     .957797516042D+00  .211406250000D+03 -.504971856139D+00 -.800604776974D-08
    -.398588031363D-09  .100000000000D+01  .149500000000D+04  .000000000000D+00
     .340000000000D+01  .000000000000D+00 -.144354999065D-07  .730000000000D+02
     .482406000000D+06  .400000000000D+01
